{
  "type": "FeatureCollection",
  "features": [
    {
      "type": "Feature",
      "properties": {
        "pair_id": "tpe_park_101",
        "od_title": "大安森林公園 → 臺北101（同目的地）",
        "route_id": "tpe_park_fast",
        "route_name": "最速：信義路主幹直達",
        "route_type": "最速",
        "scenario_scope": "臺北短程｜地標通勤",
        "travel_minutes": 10,
        "avg_pm25": 20.2,
        "exposure_reduction_pct": 0,
        "clean_score": 66,
        "time_delta_min": 0,
        "tradeoff_label": "最快 · 主幹道暴露較高",
        "route_basis": "沿信義路連續東行，路徑最短，但緊貼汽機車密集廊道，格網推估 PM2.5 與風險分數較高。",
        "decision_hint": "尖峰、敏感族群不建議作為預設。",
        "pros": "里程少、紅綠燈相對可預期，適合趕行程。",
        "cons": "緊鄰主幹道，沿途污染暴露與噪音較高。",
        "compare_hint": "清淨線多騎約 3 分鐘，路徑 PM2.5 均值約降 23%，污染暴露量（格網×距離）約降 26%。"
      },
      "geometry": {
        "type": "LineString",
        "coordinates": [
          [121.53545, 25.03375],
          [121.5371, 25.03372],
          [121.5402, 25.0336],
          [121.5435, 25.03348],
          [121.5468, 25.03342],
          [121.5505, 25.03348],
          [121.5542, 25.03355],
          [121.5588, 25.03378],
          [121.5622, 25.03388],
          [121.56456, 25.03397]
        ]
      }
    },
    {
      "type": "Feature",
      "properties": {
        "pair_id": "tpe_park_101",
        "od_title": "大安森林公園 → 臺北101（同目的地）",
        "route_id": "tpe_park_clean",
        "route_name": "清淨：公園邊界與退縮人行帶",
        "route_type": "清淨",
        "scenario_scope": "臺北短程｜地標通勤",
        "travel_minutes": 13,
        "avg_pm25": 15.6,
        "exposure_reduction_pct": 26,
        "clean_score": 86,
        "time_delta_min": 3,
        "tradeoff_label": "多 3 分 · 空品較友善",
        "route_basis": "先沿大安森林公園邊緣與綠覆較高路段切換，再銜接信義支線，避開連續主幹道格網高峰。",
        "decision_hint": "預設推薦給一般騎乘與親子短程。",
        "pros": "綠地緩衝、推估 PM2.5 較低，對長期通勤較友善。",
        "cons": "轉彎與路口略多，總時間稍長。",
        "compare_hint": "相較最速線，少吸納主幹道熱點污染，適合「健康優先」決策。"
      },
      "geometry": {
        "type": "LineString",
        "coordinates": [
          [121.53545, 25.03375],
          [121.5363, 25.03325],
          [121.5375, 25.03255],
          [121.5389, 25.03235],
          [121.54058, 25.03215],
          [121.5432, 25.03195],
          [121.5462, 25.03172],
          [121.54875, 25.03158],
          [121.5525, 25.03185],
          [121.55624, 25.03221],
          [121.5605, 25.03275],
          [121.56456, 25.03397]
        ]
      }
    },
    {
      "type": "Feature",
      "properties": {
        "pair_id": "tpe_station_daan",
        "od_title": "臺北車站生活圈 → 大安森林公園（同目的地）",
        "route_id": "tpe_station_fast",
        "route_name": "最速：忠孝東路走廊",
        "route_type": "最速",
        "scenario_scope": "臺北跨區｜轉乘後短接",
        "travel_minutes": 18,
        "avg_pm25": 21.8,
        "exposure_reduction_pct": 0,
        "clean_score": 62,
        "time_delta_min": 0,
        "tradeoff_label": "最快 · 連續幹道",
        "route_basis": "沿忠孝東路—仁愛段主要廊道，與大量汽機車共線，為「時間最短、空品負擔較重」典型對照組。",
        "decision_hint": "適合時間壓力大、單次短接；不建議每天固定走。",
        "pros": "路線直覺、與捷運/台鐵出口銜接清楚，對觀光與商務訪客好懂。",
        "cons": "商務幹道車流、停靠公車多，推估懸浮微粒與氮氧化物暴露偏高。",
        "compare_hint": "清淨線多約 5 分鐘，路徑 PM2.5 均值約降 18%，暴露積分約降 28%。"
      },
      "geometry": {
        "type": "LineString",
        "coordinates": [
          [121.5172, 25.0476],
          [121.5195, 25.0462],
          [121.5225, 25.0445],
          [121.5255, 25.043],
          [121.5288, 25.0412],
          [121.532, 25.0395],
          [121.5345, 25.0378],
          [121.5358, 25.0362],
          [121.5365, 25.0348],
          [121.53625, 25.03365]
        ]
      }
    },
    {
      "type": "Feature",
      "properties": {
        "pair_id": "tpe_station_daan",
        "od_title": "臺北車站生活圈 → 大安森林公園（同目的地）",
        "route_id": "tpe_station_clean",
        "route_name": "清淨：南側支線＋公園北緣",
        "route_type": "清淨",
        "scenario_scope": "臺北跨區｜轉乘後短接",
        "travel_minutes": 23,
        "avg_pm25": 17.9,
        "exposure_reduction_pct": 28,
        "clean_score": 84,
        "time_delta_min": 5,
        "tradeoff_label": "多 5 分 · 避開忠孝連續熱點",
        "route_basis": "改走車站南側道路與綠覆較高支線，再銜接公園北側人行/自行車友善路段，犧牲直線距離換較低推估暴露。",
        "decision_hint": "適合每日通勤、親子與敏感族群。",
        "pros": "離主幹道熱點較遠，推估吸入負擔較低；心理壓力較小。",
        "cons": "路口較碎、需多看告示與汽車右轉。",
        "compare_hint": "與最速線同一目的地，凸顯「多花幾分鐘換較乾淨路廊」的政策敘事。"
      },
      "geometry": {
        "type": "LineString",
        "coordinates": [
          [121.5172, 25.0476],
          [121.5183, 25.046],
          [121.5205, 25.0442],
          [121.5228, 25.0425],
          [121.5252, 25.0408],
          [121.528, 25.0392],
          [121.531, 25.0375],
          [121.5332, 25.0358],
          [121.5348, 25.0345],
          [121.5359, 25.0339],
          [121.53625, 25.03365]
        ]
      }
    },
    {
      "type": "Feature",
      "properties": {
        "pair_id": "ntpc_banqiao_moon",
        "od_title": "板橋車站 → 新月橋（同目的地）",
        "route_id": "ntpc_banqiao_fast",
        "route_name": "最速：市區捷徑",
        "route_type": "最速",
        "scenario_scope": "新北短程｜河濱銜接",
        "travel_minutes": 12,
        "avg_pm25": 21.1,
        "exposure_reduction_pct": 0,
        "clean_score": 64,
        "time_delta_min": 0,
        "tradeoff_label": "最快 · 車站周邊熱點",
        "route_basis": "穿越站前密集車流與停靠區，推估短距離內空污濃度峰值多。",
        "decision_hint": "趕接駁可用；長期週遊建議改河濱。",
        "pros": "最短路徑，對不熟悉河濱入口的旅客友善。",
        "cons": "站前汽機車混流、暴露尖峰明顯。",
        "compare_hint": "清淨線多 4 分鐘，路徑 PM2.5 均值約降 33%，暴露量約降 31%。"
      },
      "geometry": {
        "type": "LineString",
        "coordinates": [
          [121.46472, 25.01381],
          [121.4625, 25.01535],
          [121.4595, 25.01715],
          [121.45612, 25.01954],
          [121.4515, 25.0225],
          [121.44648, 25.02646],
          [121.4412, 25.0295],
          [121.43592, 25.03223]
        ]
      }
    },
    {
      "type": "Feature",
      "properties": {
        "pair_id": "ntpc_banqiao_moon",
        "od_title": "板橋車站 → 新月橋（同目的地）",
        "route_id": "ntpc_banqiao_clean",
        "route_name": "清淨：大漢溪河濱系統",
        "route_type": "清淨",
        "scenario_scope": "新北短程｜河濱銜接",
        "travel_minutes": 16,
        "avg_pm25": 14.2,
        "exposure_reduction_pct": 31,
        "clean_score": 89,
        "time_delta_min": 4,
        "tradeoff_label": "多 4 分 · 河濱低暴露",
        "route_basis": "改由河濱貫穿低車流廊道，再銜接新月橋端點，是「同目的地、低暴露」的標準示範線。",
        "decision_hint": "親子、長距離休閒與單車觀光首選。",
        "pros": "遠離站前熱點、景觀與騎乘舒適度高。",
        "cons": "需熟悉河濱入口；雨天要留意防滑。",
        "compare_hint": "最能向評審說明「YouBike＋河濱＝健康路廊」的搭配。"
      },
      "geometry": {
        "type": "LineString",
        "coordinates": [
          [121.46472, 25.01381],
          [121.4629, 25.0162],
          [121.4612, 25.0185],
          [121.45882, 25.02094],
          [121.455, 25.0242],
          [121.44966, 25.02821],
          [121.4428, 25.0308],
          [121.43592, 25.03223]
        ]
      }
    },
    {
      "type": "Feature",
      "properties": {
        "pair_id": "ntpc_yonghe_lehua",
        "od_title": "永安市場 → 樂華夜市（同目的地）",
        "route_id": "ntpc_yonghe_fast",
        "route_name": "最速：中和路主幹",
        "route_type": "最速",
        "scenario_scope": "新北生活圈｜夜市短接",
        "travel_minutes": 7,
        "avg_pm25": 24.6,
        "exposure_reduction_pct": 0,
        "clean_score": 57,
        "time_delta_min": 0,
        "tradeoff_label": "最快 · 機車密度高",
        "route_basis": "短距離沿主幹道直射夜市，尖峰時刻機車與公車併流，推估暴露最高。",
        "decision_hint": "僅建議離峰或戴高防護口罩時短接。",
        "pros": "路線單純、時間省。",
        "cons": "距離短但濃度高，「少吸一口」差異最關鍵。",
        "compare_hint": "清淨巷弄線多 3 分鐘，路徑 PM2.5 均值約降 29%，暴露量約降 29%。"
      },
      "geometry": {
        "type": "LineString",
        "coordinates": [
          [121.51133, 25.00277],
          [121.5122, 25.00405],
          [121.51352, 25.00546],
          [121.5142, 25.00635],
          [121.51489, 25.00721],
          [121.51545, 25.00825],
          [121.51595, 25.00928]
        ]
      }
    },
    {
      "type": "Feature",
      "properties": {
        "pair_id": "ntpc_yonghe_lehua",
        "od_title": "永安市場 → 樂華夜市（同目的地）",
        "route_id": "ntpc_yonghe_clean",
        "route_name": "清淨：巷弄切點",
        "route_type": "清淨",
        "scenario_scope": "新北生活圈｜夜市短接",
        "travel_minutes": 10,
        "avg_pm25": 17.4,
        "exposure_reduction_pct": 29,
        "clean_score": 80,
        "time_delta_min": 3,
        "tradeoff_label": "多 3 分 · 避開連續幹道",
        "route_basis": "改走住宅區巷道與公園邊界，犧牲直線速度換較低車流暴露。",
        "decision_hint": "每日往返夜市工作人員可改走此線。",
        "pros": "吸入負擔較低、行人心壓較小。",
        "cons": "需注意巷口視線與違停。",
        "compare_hint": "適合簡報「生活圈尺度也能做清淨導航」。"
      },
      "geometry": {
        "type": "LineString",
        "coordinates": [
          [121.51133, 25.00277],
          [121.5105, 25.004],
          [121.50975, 25.00512],
          [121.5102, 25.00645],
          [121.51166, 25.00788],
          [121.5135, 25.00865],
          [121.51595, 25.00928]
        ]
      }
    },
    {
      "type": "Feature",
      "properties": {
        "pair_id": "tpe_gongguan_ntu",
        "od_title": "公館捷運站周邊 → 臺大校總區（短接｜同一目的地）",
        "route_id": "tpe_gongguan_fast",
        "route_name": "最速：羅斯福路主幹直行",
        "route_type": "最速",
        "scenario_scope": "臺北文教｜校園短接",
        "travel_minutes": 6,
        "avg_pm25": 23.1,
        "exposure_reduction_pct": 0,
        "clean_score": 58,
        "time_delta_min": 0,
        "tradeoff_label": "最快 · 公車與機車流併線",
        "route_basis": "沿羅斯福路連續與汽機車共線，雖僅數百公尺，推估因煞停、怠速與巷道匯流，短距離「濃度×時間」暴露尖峰明顯——正是清淨導航要抓的生活圈尺度。",
        "decision_hint": "單次趕課可接受；每日固定建議改綠廊線。",
        "pros": "路線單純、辨識度高，與 YouBike 站點銜接直覺。",
        "cons": "緊貼主幹道，PM2.5 與交通噪音推估皆較高。",
        "compare_hint": "清淨線多騎約 2 分鐘，路徑 PM2.5 均值約降 21%，沿路格網加權暴露量約降 24%。",
        "data_hook": "示範：短距離 OD 仍以「沿路空品格網 × 停留／騎乘時間」估算暴露，凸顯非最短路徑的價值。"
      },
      "geometry": {
        "type": "LineString",
        "coordinates": [
          [121.53435, 25.01438],
          [121.53492, 25.01472],
          [121.53542, 25.01505],
          [121.53595, 25.01542],
          [121.53652, 25.01588],
          [121.53705, 25.01628],
          [121.53748, 25.01668]
        ]
      }
    },
    {
      "type": "Feature",
      "properties": {
        "pair_id": "tpe_gongguan_ntu",
        "od_title": "公館捷運站周邊 → 臺大校總區（短接｜同一目的地）",
        "route_id": "tpe_gongguan_clean",
        "route_name": "清淨：舟山路綠廊＋校園邊界",
        "route_type": "清淨",
        "scenario_scope": "臺北文教｜校園短接",
        "travel_minutes": 8,
        "avg_pm25": 18.3,
        "exposure_reduction_pct": 24,
        "clean_score": 82,
        "time_delta_min": 2,
        "tradeoff_label": "多 2 分 · 綠覆與低車流帶",
        "route_basis": "改由舟山路一帶與校園邊界路廊銜接，避開羅斯福連續高車流格網；數值為與左欄同一套格網加權之對照組。",
        "decision_hint": "學生通勤、教職與訪客「健康預設」路線。",
        "pros": "樹冠緩衝、推估懸浮微粒較低，與「低碳＋健康」主題一致。",
        "cons": "需留意校園段騎乘規定與行人安全。",
        "compare_hint": "同一目的地、同一套資料模型：時間稍換，空品暴露敘事立刻可講給評審聽。",
        "data_hook": "與地圖「短程空品推估格網」圖層同一邏輯，可在簡報中交查對照。"
      },
      "geometry": {
        "type": "LineString",
        "coordinates": [
          [121.53435, 25.01438],
          [121.53388, 25.01485],
          [121.53342, 25.01528],
          [121.53355, 25.01575],
          [121.53405, 25.01602],
          [121.53462, 25.01635],
          [121.53522, 25.01658],
          [121.53585, 25.01678],
          [121.53642, 25.01688],
          [121.53705, 25.01695],
          [121.53748, 25.01668]
        ]
      }
    },
    {
      "type": "Feature",
      "properties": {
        "pair_id": "tpe_songshan_riverside",
        "od_title": "松山車站周邊 → 基隆河河濱自行車道（銜接點）",
        "route_id": "tpe_songshan_fast",
        "route_name": "最速：八德／民生幹道直切",
        "route_type": "最速",
        "scenario_scope": "臺北河濱銜接｜親子／休閒",
        "travel_minutes": 14,
        "avg_pm25": 22.4,
        "exposure_reduction_pct": 0,
        "clean_score": 61,
        "time_delta_min": 0,
        "tradeoff_label": "最快 · 市區幹道暴露高",
        "route_basis": "沿車流較大的市區道路直接往北，至河濱入口前累積較多交通污染源格網；與 YouBike「出站後短衝刺」行為高度相關。",
        "decision_hint": "僅趕時間時採用。",
        "pros": "轉彎少、路況對一般騎士友善。",
        "cons": "主幹道旁騎乘，推估 PM2.5 與噪音壓力較大。",
        "compare_hint": "清淨線多約 5 分鐘，路徑 PM2.5 均值約降 27%，暴露積分約降 34%——典型「先苦後爽」：進河濱前少吸一口。",
        "data_hook": "示範資料呼應政策語言：河濱路廊是既定低碳基礎建設，清淨導航把它說成可量化的健康效益。"
      },
      "geometry": {
        "type": "LineString",
        "coordinates": [
          [121.57745, 25.04952],
          [121.5762, 25.05085],
          [121.57485, 25.05225],
          [121.5735, 25.05368],
          [121.57205, 25.05515],
          [121.57055, 25.05658],
          [121.5691, 25.05805],
          [121.56775, 25.05952],
          [121.56635, 25.06105],
          [121.56505, 25.06248],
          [121.56385, 25.06388],
          [121.56275, 25.06512]
        ]
      }
    },
    {
      "type": "Feature",
      "properties": {
        "pair_id": "tpe_songshan_riverside",
        "od_title": "松山車站周邊 → 基隆河河濱自行車道（銜接點）",
        "route_id": "tpe_songshan_clean",
        "route_name": "清淨：社區靜巷轉河濱引道",
        "route_type": "清淨",
        "scenario_scope": "臺北河濱銜接｜親子／休閒",
        "travel_minutes": 19,
        "avg_pm25": 16.4,
        "exposure_reduction_pct": 34,
        "clean_score": 88,
        "time_delta_min": 5,
        "tradeoff_label": "多 5 分 · 進河濱前避開熱點",
        "route_basis": "改走車流較低的街廓與引道，再銜接河濱系統；與最速組共用同一空品格網敘事，僅路徑不同即得出可對比的暴露差異。",
        "decision_hint": "親子、長者與週休二日河濱路線首選。",
        "pros": "在進入低車流河濱前即降低推估暴露，故事線最適合對外 Demo。",
        "cons": "轉向較多，需熟悉路牌。",
        "compare_hint": "地圖上並排兩線可一眼看出：同一個「去騎河濱」決策，路徑選擇直接改變空品暴露。",
        "data_hook": "建議簡報同時開啟格網圖層，對評審說明兩線穿過的風險格差異。"
      },
      "geometry": {
        "type": "LineString",
        "coordinates": [
          [121.57745, 25.04952],
          [121.5769, 25.04895],
          [121.57635, 25.04942],
          [121.5757, 25.05005],
          [121.5751, 25.05075],
          [121.57445, 25.05152],
          [121.57385, 25.05232],
          [121.5732, 25.05312],
          [121.5725, 25.05398],
          [121.57175, 25.05488],
          [121.57105, 25.05578],
          [121.57035, 25.05672],
          [121.56965, 25.05765],
          [121.56895, 25.05858],
          [121.56825, 25.05955],
          [121.56755, 25.0605],
          [121.56685, 25.06145],
          [121.56615, 25.0624],
          [121.56545, 25.06335],
          [121.56475, 25.06428],
          [121.56405, 25.06518],
          [121.56335, 25.06605],
          [121.56275, 25.06512]
        ]
      }
    }
  ]
}
